X,Y,objectid,map_id,name,latitude,longitude,parcel_own,parcel_ope,access_typ,access_sur,dedicated_,shore_type,restroom,showers,picnic_fac,trash_rece,water,phone,lifeguard,alt_name,sign_word
-157.863510597227673,21.294018794689531,1,1,Kaka'ako Waterfront Park,21.294022,-157.863525,Hawaii Community Development Authority,Hawaii Community Development Authority,Vertical and Horizontal,Grass,270,"Rock, Cliff",Yes,Yes,Yes,Yes,Yes,No,No,Kaka'ako Waterfront Park,Kaka'ako Waterfront Park
-157.858666157672758,21.291452134733156,2,2,Kewalo Basin Park,21.291456,-157.858681,Hawaii Community Development Authority,Hawaii Community Development Authority,Vertical and Horizontal,Grass,90,"Rock, Cliff",Yes,Yes,Yes,Yes,Yes,No,No,Kewalo Basin Park,Kewalo Basin Park
-157.844982816787109,21.287460465037494,3,3,Ala Moana Regional Park,21.287464,-157.844997,City & County of Honolulu,City & County of Honolulu,Vertical and Horizontal,Grass,800,"Sand, Rock",Yes,Yes,Yes,Yes,Yes,Yes,Yes,Ala Moana Regional Park and Magic Island,Ala Moana Regional Park
-157.837145596683968,21.28125657491918,4,4,Duke Paoa Kahanamuku Beach Park,21.28126,-157.83716,State of Hawaii,City & County of Honolulu,Vertical and Horizontal,Paved,0,Sand,Yes,Yes,Yes,Yes,Yes,Yes,Yes,Hilton Hawaiian Village,"145A, Duke Paoa Kahanamuku Beach Park"
-157.833695596306569,21.278166574115755,5,5,Fort Derussy,21.27817,-157.83371,United States of America,United States of America,Vertical and Horizontal,Paved,0,Sand,Yes,Yes,Yes,Yes,Yes,Yes,Yes,Fort Derussy,Fort Derussy
-157.832025596007384,21.278656574188251,6,6,Kalia Road,21.27866,-157.83204,City & County of Honolulu,City & County of Honolulu,Vertical and Horizontal,Paved,0,Sand,No,No,No,No,No,No,No,Kalia Road,"141A, Beach Right Of Way"
-157.822295595935202,21.270186573822215,7,7,Kuhio Beach Park,21.27019,-157.82231,State of Hawaii and City & County of Honolulu,City & County of Honolulu,Vertical and Horizontal,Paved,0,Sand,Yes,Yes,Yes,Yes,Yes,Yes,Yes,Waikiki,Kuhio Beach Park
-157.822285595733916,21.270166574131974,8,8,Kapi'olani Regional Park,21.27017,-157.8223,City & County of Honolulu,City & County of Honolulu,Vertical and Horizontal,Grass,0,Sand,Yes,Yes,Yes,Yes,Yes,Yes,Yes,"Queens; Kaimana Beach",Kuhio Beach Park
-157.821355595186645,21.263976573235716,9,9,Kaimana Beach,21.26398,-157.82137,City & County of Honolulu,City & County of Honolulu,Vertical and Horizontal,Grass,0,Sand,Yes,Yes,Yes,Yes,Yes,Yes,Yes,Sans Souci Beach,Various
-157.818825595759336,21.25902657312086,10,10,Tonggs,21.25903,-157.81884,Kozan Company,Kozan Company,Vertical and Horizontal,Sand,0,Rock,No,No,No,No,No,No,No,Tonggs,Waikiki - Diamond Head Fisheries Management Area
-157.816915595855733,21.258036573468591,11,11,Makalei Beach Park,21.25804,-157.81693,City & County of Honolulu,City & County of Honolulu,Vertical and Horizontal,Paved,0,Sand,No,Yes,Yes,Yes,Yes,No,No,Makalei Beach Park,Makalei Beach Park
-157.815165595068208,21.256996573692469,12,12,Le‘ahi  Beach Park,21.257,-157.81518,City & County of Honolulu,City & County of Honolulu,Vertical,Grass,0,Rock,No,No,No,Yes,No,No,No,Le‘ahi  Beach Park,Le‘Ahi  Beach Park
-157.810965595608252,21.25601657342753,13,13,Diamond Head Beach Park,21.25602,-157.81098,State of Hawaii,State of Hawaii,Vertical and Horizontal,Paved,15,Rock,No,No,No,Yes,No,No,No,Diamond Head Beach Park,Varous
-157.804925594948656,21.256046573393188,14,14,Kuilei Cliffs,21.25605,-157.80494,State of Hawaii,City & County of Honolulu,Vertical and Horizontal,Paved,100,Sand,No,Yes,No,Yes,Yes,No,No,Kuilei Cliffs,Diamond Head Lookout Recreation Park Area
-157.796655594972151,21.257366573714691,15,15,Ka'alawai,21.25737,-157.79667,State of Hawaii,City & County of Honolulu,Vertical and Horizontal,Paved,0,Sand,No,No,No,Yes,No,No,No,Kulamanu Place Access,"Emergency Access Road, The Following Are Prohibited.."
-157.793225594104769,21.255916573840889,16,16,Kaiko'o Place Beach Right of Way,21.25592,-157.79324,City & County of Honolulu,City & County of Honolulu,Vertical and Horizontal,Gravel,0,Rock,No,No,No,No,No,No,No,Lae o Kupikipiki‘o or Black Point,135A
-157.790205594149398,21.260686573414411,17,17,Kahala Avenue at Elepaio Street,21.26069,-157.79022,BP Bishop Trust Estate,City & County of Honolulu,Vertical and Horizontal,Sand,0,Rock,No,No,No,Yes,No,No,No,Kahala Avenue at Elepaio Street,"134C, Beach Right Of Way"
-157.787135594531918,21.262196573586682,18,18,Kahala Avenue at Kala Place,21.2622,-157.78715,BP Bishop Trust Estate,City & County of Honolulu,Vertical and Horizontal,Sand,0,Sand,No,No,No,Yes,No,No,No,Kahala Avenue at Kala Place,"134B, Beach Right Of Way"
-157.784385594187967,21.263896574341612,19,19,Kahala Avenue at Hunakai Place,21.2639,-157.7844,BP Bishop Trust Estate,City & County of Honolulu,Vertical and Horizontal,Sand,0,Sand,No,No,No,Yes,No,No,No,Kahala Avenue at Hunakai Place,"134A, Beach Right Of Way, The Following Are Prohibited..."
-157.782075594658465,21.265516574119953,20,20,Kahala Avenue at Koloa Street B,21.26552,-157.78209,BP Bishop Trust Estate,City & County of Honolulu,Vertical and Horizontal,Paved,0,Sand,No,No,No,Yes,No,No,No,Kahala Avenue at Koloa Street B,"133C, Beach Right Of Way, No Parking"
-157.781565594657337,21.265916574657442,21,21,Kahala Avenue at Koloa Street A,21.26592,-157.78158,BP Bishop Trust Estate,City & County of Honolulu,Vertical and Horizontal,Paved,0,Sand,No,No,No,No,No,No,No,Kahala Avenue at Koloa Street A,"133B, Beach Right Of Way, No Parking"
-157.781165594302195,21.266356574327542,22,22,Kahala Avenue at Koloa Street C,21.26636,-157.78118,BP Bishop Trust Estate,City & County of Honolulu,Vertical and Horizontal,Paved,0,Sand,No,No,No,Yes,No,No,No,Kahala Avenue at Koloa Street C,"133A, Beach Right Of Way, No Parking"
-157.777345594439794,21.270016574496747,23,23,Wai'alae Beach Park,21.27002,-157.77736,City & County of Honolulu,City & County of Honolulu,Vertical and Horizontal,Paved,41,Sand,Yes,Yes,Yes,Yes,Yes,Yes,No,Wai'alae Beach Park,Wai'Alae Beach Park
-157.759935594059186,21.276216574757768,24,24,Wailupe Beach Park,21.27622,-157.75995,State of Hawaii and City & County of Honolulu,City & County of Honolulu,Vertical and Horizontal,Grass,19,Rock,Yes,Yes,Yes,Yes,Yes,Yes,No,Wailupe Beach Park,Wailupe Beach Park
-157.75502559300142,21.277636574950279,25,25,Wailupe Access on Hind Drive,21.27764,-157.75504,State of Hawaii,State of Hawaii,Vertical,Dirt,6,Rock,No,No,No,No,No,No,No,"Wailupe, Hind Drive",N/A
-157.745245592781373,21.279516575199569,26,26,Kawaiku'i Beach Park,21.27952,-157.74526,City & County of Honolulu,City & County of Honolulu,Vertical and Horizontal,Grass,45,Sand,Yes,Yes,Yes,Yes,Yes,Yes,No,Kawaiku'i Beach Park,Kawaiku'I Beach Park
-157.738265593020458,21.280926575585539,27,27,Kalanianiole,21.28093,-157.73828,City & County of Honolulu,City & County of Honolulu,Vertical and Horizontal,Gravel,0,Sand,No,No,No,No,No,No,No,Kalanianiole,"128A, Beach Right Of Way"
-157.728125592885618,21.281266575748205,28,28,Paiko Drive,21.28127,-157.72814,MPC First LLC,City & County of Honolulu,Vertical and Horizontal,Sand,4,Sand,No,No,No,No,No,No,No,Paiko Lagoon,127A Beach Right Of Way Pedestrain Traffic Only
-157.723005592357595,21.284506575691317,29,29,Paiko Lagoon,21.28451,-157.72302,State of Hawaii,State of Hawaii,Vertical and Horizontal,Sand,0,Rock,No,No,No,No,No,No,No,Kuliouou - Paiko,Various
-157.721085592442364,21.284276576533234,30,30,Kuli'ou'ou Beach Park,21.28428,-157.7211,State of Hawaii,City & County of Honolulu,Vertical and Horizontal,Sand,27,Sand,Yes,Yes,Yes,Yes,Yes,No,No,Kuli'ou'ou Beach Park,Kuli'Ou'Ou Beach Park
-157.713475592432445,21.281896575663232,31,31,Maunalua Bay Beach Park,21.2819,-157.71349,State of Hawaii and City & County of Honolulu,City & County of Honolulu,Vertical and Horizontal,Grass,0,Sand,Yes,No,Yes,Yes,No,No,No,Maunalua Park,Various
-157.709918891472995,21.266196575591611,32,32,Koke'e Beach Right of Way,21.2662,-157.709933,City & County of Honolulu,City & County of Honolulu,Vertical and Horizontal,Grass,0,Cliff,No,No,No,Yes,No,No,No,China Walls,"121A, Various"
-157.711405591798325,21.26160657514453,33,33,Koko Kai Beach Right Of Way,21.26161,-157.71142,City & County of Honolulu,City & County of Honolulu,Vertical and Horizontal,Grass and Dirt,0,Cliff,No,No,No,Yes,No,No,No,China Walls,"120A, Koko Kai Mini Beach Park"
-157.707735591691915,21.25977657520383,34,34,Lumahai Street,21.25978,-157.70775,City & County of Honolulu,City & County of Honolulu,Vertical and Horizontal,Rocky,0,Cliff,No,No,No,No,No,No,No,Spitting Caves,"119A, Various"
-157.693665591346274,21.275176575723385,35,35,Hanauma Bay Nature Preserve and State Underwater Park,21.27518,-157.69368,City & County of Honolulu,City & County of Honolulu,Vertical and Horizontal,Paved,99,Rock,No,No,No,No,No,No,No,Koko Head Regional Park,Various
-157.685635591253771,21.276426576176274,36,36,Lanai Lookout Area,21.27643,-157.68565,City & County of Honolulu,City & County of Honolulu,Vertical and Horizontal,Rocky,22,Cliff,No,No,No,No,No,No,No,Koko Head Regional Park,Various
-157.683245590634669,21.277626576096502,37,37,Koko Head Regional Park,21.27763,-157.68326,City & County of Honolulu,City & County of Honolulu,Vertical and Horizontal,Rocky,6,Cliff,No,No,No,No,No,No,No,"Lanai Lookout; Bamboo Ridge",N/A
-157.677535590618845,21.280316576452936,38,38,Bamboo Ridge,21.28032,-157.67755,City & County of Honolulu,City & County of Honolulu,Vertical and Horizontal,Rocky,0,Cliff,No,No,No,No,No,No,No,Koko Head Regional Park,N/A
-157.676975590764954,21.282016576305839,39,39,Eternity Beach - Cockroach Cove,21.28202,-157.67699,City & County of Honolulu,City & County of Honolulu,Vertical and Horizontal,Rocky,40,"Sand, Rock",No,No,No,No,No,No,No,Koko Head Regional Park,N/A
-157.66914559037528,21.287096577347036,40,40,Sandy Beach,21.2871,-157.66916,State of Hawaii and City & County of Honolulu,City & County of Honolulu,Vertical and Horizontal,Sand,148,Sand,Yes,Yes,Yes,Yes,Yes,Yes,Yes,Sandy Beach,Various
-157.662075590325202,21.291806577319292,41,41,Makapu'u Point Wayside Park,21.29181,-157.66209,State of Hawaii,State of Hawaii,Vertical and Horizontal,Sand,0,Rock,No,No,No,Yes,No,No,No,N/A,Various
-157.649105589872846,21.304677578582293,42,42,Makapu'u Point Wayside Park,21.304681,-157.64912,State of Hawaii,State of Hawaii,Vertical and Horizontal,Rocky,38,Rock,No,No,No,No,No,No,No,Makapu'u Tide Pools,N/A
-157.660755590540646,21.313296578134704,43,43,Makapu'u Beach Park,21.3133,-157.66077,DHHL,City & County of Honolulu,Horizontal,Paved,37,Sand,Yes,Yes,Yes,Yes,Yes,Yes,Yes,makapuu beach,Various
-157.664735590946066,21.316026578301098,44,44,Kaupo Beach Park,21.31603,-157.66475,DHHL,Licensed to City & County of Honolulu,Vertical and Horizontal,Sand,70,Sand,Yes,Yes,Yes,Yes,Yes,No,No,Kaupo Beach Park,Kaupo
-157.682155591501129,21.325626579362112,45,45,Kaiona Beach Park,21.32563,-157.68217,DHHL,Licensed to City & County of Honolulu,Vertical and Horizontal,Grass,25,Sand,Yes,Yes,Yes,Yes,Yes,No,No,Kaiona Beach Park,Kaione Beach Park
-157.693625591908557,21.332456578943688,46,46,Waimanalo Beach Park,21.33246,-157.69364,State of Hawaii & DHHL (Licensed to City),City & County of Honolulu,Vertical and Horizontal,Grass,108,Sand,Yes,Yes,Yes,Yes,Yes,Yes,Yes,Waimanalo Beach Park,Waimanalo Beach Park
-157.695735592074186,21.33415657937293,47,47,Laumilo I,21.33416,-157.69575,State of Hawaii,City & County of Honolulu,Vertical and Horizontal,Grass,0,Sand,No,No,No,No,No,No,No,Laumilo I,"101B, Public Right Of Way To Beach"
-157.696315592294667,21.335016579315543,48,48,Laumilo H,21.33502,-157.69633,State of Hawaii,City & County of Honolulu,Vertical and Horizontal,Grass,0,Sand,No,No,No,No,No,No,No,Laumilo H,"101A, Public Right Of Way To Beach"
-157.69684559176082,21.335776579385428,49,49,Laumilo G,21.33578,-157.69686,State of Hawaii,City & County of Honolulu,Vertical and Horizontal,Grass,0,Sand,No,No,No,No,No,No,No,Laumilo G,"100G, Public Right Of Way To Beach"
-157.697355591973349,21.336596579217193,50,50,Laumilo F,21.3366,-157.69737,State of Hawaii,City & County of Honolulu,Vertical and Horizontal,Grass,0,Sand,No,No,No,No,No,No,No,Laumilo F,"100F, Public Right Of Way To Beach"
-157.697945591715325,21.337426579810803,51,51,Laumilo E,21.33743,-157.69796,State of Hawaii,City & County of Honolulu,Vertical and Horizontal,Grass,0,Sand,No,No,No,No,No,No,No,Laumilo E,"100E, Public Right Of Way To Beach"
-157.698525591967467,21.33822657922595,52,52,Laumilo D,21.33823,-157.69854,State of Hawaii,City & County of Honolulu,Vertical and Horizontal,Grass,0,Sand,No,No,No,No,No,No,No,Laumilo D,"100D, Public Right Of Way To Beach"
-157.699095591857343,21.339046579219229,53,53,Laumilo C,21.33905,-157.69911,State of Hawaii,City & County of Honolulu,Vertical and Horizontal,Grass,0,Sand,No,No,No,No,No,No,No,Laumilo C,"100C, Public Right Of Way To Beach"
-157.699575592675842,21.339906579876804,54,54,Laumilo B,21.33991,-157.69959,State of Hawaii,City & County of Honolulu,Vertical and Horizontal,Grass,0,Sand,No,No,No,No,No,No,No,Laumilo B,"100B, Public Right Of Way To Beach"
-157.70008559273839,21.340696579973734,55,55,Laumilo A,21.3407,-157.7001,State of Hawaii,City & County of Honolulu,Vertical and Horizontal,Grass,0,Sand,No,No,No,No,No,No,No,Laumilo A,"100A, Public Right Of Way To Beach"
-157.702285592235739,21.344296579975868,56,56,Waimanalo Bay Beach Park,21.3443,-157.7023,City & County of Honolulu,City & County of Honolulu,Vertical and Horizontal,Grass,220,Sand,Yes,Yes,Yes,Yes,Yes,Yes,Yes,Waimanalo Bay Beach Park,Waimanalo Bay Beach Park
-157.710115592432118,21.345556579626308,57,57,Bellows Field Beach Park,21.34556,-157.71013,United States of America,City & County of Honolulu,Vertical and Horizontal,Grass,65,Sand,Yes,Yes,Yes,Yes,Yes,No,Yes,Bellows Field Beach Park,No Vehiles On The Beach   The Following Are Prohibited…
-157.709977263600308,21.383352142412665,58,58,Mokulua Drive A,21.383356,-157.709992,Lanikai Community Association,City & County of Honolulu,Vertical and Horizontal,Sand,0,Sand,No,No,No,Yes,No,No,No,N/A,"94B, Public Right Of Way To Beach"
-157.712096703560235,21.387196582320691,59,59,Mokulua Drive B,21.3872,-157.712111,Lanikai Community Association,City & County of Honolulu,Vertical and Horizontal,Sand,0,Sand,No,No,No,Yes,No,No,No,Mokulua Drive B,94A
-157.715613373705025,21.391385472412079,60,60,Mokulua Drive C,21.391389,-157.715628,Lanikai Community Association,City & County of Honolulu,Vertical and Horizontal,Sand,0,Sand,No,No,No,Yes,No,No,No,Mokulua Drive C,"93A, Public Right Of Way To Beach"
-157.716399483286096,21.392449362873204,61,61,Mokulua Drive D,21.392453,-157.716414,Lanikai Community Association,Lanikai Community Association,Vertical and Horizontal,Sand,0,Sand,No,No,No,Yes,No,No,No,Mokulua Drive D,Public Right Of Way To Beach
-157.722957814011863,21.395452142511012,62,62,Boat Ramp at Kailua Beach Park,21.395456,-157.722972,State of Hawaii,State of Hawaii,Vertical and Horizontal,Sand,32,Sand,Yes,Yes,No,Yes,Yes,Yes,Yes,Boat Ramp,Reserved Parking For Vehicles With Trailers
-157.726010593790591,21.39640769233128,63,63,Kailua Beach Park,21.396411,-157.726025,City & County of Honolulu,City & County of Honolulu,Vertical and Horizontal,Paved,102,Sand,Yes,Yes,Yes,Yes,Yes,Yes,Yes,Kailua Beach Park,N/A
-157.728130034517307,21.398018803096374,64,64,Kailua Beach Park,21.398022,-157.728144,State of Hawaii and City & County of Honolulu,City & County of Honolulu,Vertical and Horizontal,Sand,140,Sand,Yes,Yes,Yes,Yes,Yes,Yes,Yes,Kailua Beach Park (Kalama),Kailua Beach Park(Kalama)
-157.733657814491437,21.398818802527327,65,65,South Kalaheo Ave at Kuuniu Street,21.398822,-157.733672,Various Owners,City & County of Honolulu,Vertical and Horizontal,Sand,0,Sand,No,No,No,No,No,No,No,South Kalaheo Ave at Kuuniu St,"91A, Public Right Of Way To Beach"
-157.740430034622932,21.404202142765495,66,66,Kalama Beach Park,21.404206,-157.740444,City & County of Honolulu,City & County of Honolulu,Vertical and Horizontal,Paved,26,Sand,Yes,Yes,No,Yes,Yes,Yes,No,Kalama Beach Park,Kalama Beach Park
-157.7411633744548,21.404791023008386,67,67,North Kalaheo Avenue at Dune Street,21.404794,-157.741178,Frank Creedon Trust,City & County of Honolulu,Vertical and Horizontal,Sand,0,Sand,No,No,No,Yes,No,No,No,North Kalaheo Avenue at Dune Street,"90B, Dune Beach Right"
-157.743213374704027,21.408293802896409,68,68,North Kalaheo Avenue at Pueohala Pl,21.408297,-157.743228,Frank Creedon Trust,City & County of Honolulu,Vertical and Horizontal,Grass,0,Sand,No,No,No,Yes,No,No,No,North Kalaheo Avenue at Pueohala Pl,"90A, Pueohala Public"
-157.744124485196807,21.409741023547301,69,69,North Kalaheo Avenue at Ainoni Street,21.409744,-157.744139,Frank Creedon Trust,City & County of Honolulu,Vertical and Horizontal,Sand,0,Sand,No,No,No,Yes,No,No,No,"kai one, ainoni street","89B, Kai One Beach Right Of Way"
-157.747138374675586,21.417666023649126,70,70,North Kalaheo Ave at Kawainui Canal,21.417669,-157.747153,City & County of Honolulu,City & County of Honolulu,Vertical and Horizontal,Dirt,0,Sand,No,No,No,Yes,No,No,No,North Kalaheo Ave at Kawainui Canal,"89A, Kailuana Beach Right Of Way Right Of Way To Beach"
-157.739841154950398,21.425824364014623,71,71,Kaimalino Street,21.425828,-157.739856,City & County of Honolulu,City & County of Honolulu,Vertical and Horizontal,Dirt,0,Sand,No,No,No,Yes,No,No,No,Kaimalino Street,"87B, Pubic Right Of Way To Beach"
-157.738502264696365,21.428071584867638,72,72,Milokai Place,21.428075,-157.738517,City & County of Honolulu,City & County of Honolulu,Vertical and Horizontal,Sand,0,Sand,No,No,No,Yes,No,No,No,Milokai Place,Pubic Right Of Way To Beach
-157.763474485975081,21.422902143872509,73,73,Kane'ohe Bay Drive B,21.422906,-157.763489,City & County of Honolulu,City & County of Honolulu,Vertical,Dirt,0,Rock,No,No,No,No,No,No,No,Kane'ohe Bay Drive B,"68A, Public Right Of Way To Beach"
-157.76879392598255,21.414046583358871,74,74,Kane'ohe Bay Drive A,21.41405,-157.768808,Various Owners,City & County of Honolulu,Vertical and Horizontal,Dirt,0,Rock,No,No,No,No,No,No,No,Kane'ohe Bay Drive A,N/A
-157.773716155804692,21.412468802861365,75,75,Mikiola Dr. C,21.412472,-157.773731,State of Hawaii,State of Hawaii,Vertical,Dirt,0,Rock,No,No,No,No,No,No,No,Mikiola Dr. C,N/A
-157.775232815535446,21.412449362838196,76,76,Mikiola Dr. B,21.412453,-157.775247,State of Hawaii,State of Hawaii,Vertical,Dirt,0,Rock,No,No,No,No,No,No,No,Mikiola Dr. B,N/A
-157.776352265810885,21.412168802774783,77,77,Mikiola Dr. A,21.412172,-157.776367,State of Hawaii,State of Hawaii,Vertical,Paved,0,Rock,No,No,No,No,No,No,No,Mikiola Dr. A,Pubic Right Of Way To Beach
-157.785585596601749,21.412766022731621,78,78,Kane'ohe Beach Park,21.412769,-157.7856,City & County of Honolulu,City & County of Honolulu,Vertical and Horizontal,Dirt,6,Sand,Yes,Yes,Yes,Yes,Yes,No,No,Kane'ohe beach park,The Following Are Prohibited...
-157.806096707416316,21.430413254273439,79,79,Ali'i Landing Shoreline Access,21.430417,-157.806111,Various Owners,City Access Easement,Vertical,Dirt,100,Rock,No,No,No,No,No,No,No,Alii Landing Shoreline Access (Ipuka St),No Sign At Time Of Survey
-157.81971892840221,21.45257991483588,80,80,Kane'ohe Bay Drive Beach Right of Way,21.452583,-157.819733,City & County of Honolulu,City & County of Honolulu,Vertical,Grass,0,Rock,No,No,No,No,No,No,No,Kane'ohe Bay Dr Beach Right of Way,Public Beach Right Of Way
-157.832202268799051,21.458929914971154,81,81,Laenani Neighborhood Park,21.458933,-157.832217,City & County of Honolulu,City & County of Honolulu,Vertical and Horizontal,Grass,15,Rock,Yes,Yes,Yes,Yes,Yes,No,No,Laenani Neighborhood Park,Laenani Neighborhood Park
-157.839902268689997,21.459413255250556,82,82,Kahalu'u Regional Park,21.459417,-157.839917,City & County of Honolulu,City & County of Honolulu,Vertical and Horizontal,Gravel and Grass,50,Rock,No,No,Yes,Yes,No,No,No,Kahaluu Regional Park,No Dumping
-157.847318929407493,21.484513256654605,83,83,Waiahole Beach Park,21.484517,-157.847333,City & County of Honolulu,City & County of Honolulu,Vertical and Horizontal,Grass,20,"Sand, Rock",No,No,No,Yes,No,No,No,Waiahole Beach Park,No Dumping
-157.837602269565338,21.516929918975013,84,84,Kualoa Regional Park,21.516933,-157.837617,City & County of Honolulu,City & County of Honolulu,Vertical and Horizontal,Grass,100,"Sand, Rock",Yes,Yes,Yes,Yes,Yes,Yes,Yes,Kualoa Regional Park,Kualoa Regional Park
-157.846002269762721,21.545163260687946,85,85,Kalae’o’io Beach Park,21.545167,-157.846017,City & County of Honolulu,City & County of Honolulu,Vertical and Horizontal,Grass,0,Sand,No,No,No,No,No,No,No,Kalae’o’io Beach Park,Kalae’O’Io Beach Park
-157.846685600450797,21.549329920968145,86,86,Ka'a'awa Beach Park,21.549333,-157.8467,City & County of Honolulu,City & County of Honolulu,Vertical and Horizontal,Grass,3,Sand,Yes,Yes,Yes,Yes,Yes,Yes,No,Ka'a'awa Beach Park,No Camping
-157.85301893020636,21.556196590562294,87,87,Swanzy Beach Park,21.5562,-157.853033,City & County of Honolulu,City & County of Honolulu,Horizontal at low tide only,Grass,45,Sand,Yes,Yes,Yes,Yes,Yes,Yes,No,Swanzy Beach Park,Swanzy Beach Park
-157.857885600853137,21.557979921041202,88,88,Makaua Beach Park,21.557983,-157.8579,City & County of Honolulu,City & County of Honolulu,Vertical and Horizontal,Grass,0,"Sand, Rock",No,No,No,No,No,No,No,Makaua Beach Park,N/A
-157.87606893170539,21.558496590487351,89,89,Ahupua'a 'O Kahana,21.5585,-157.876083,State of Hawaii,State of Hawaii,Vertical and Horizontal,Grass,100,"Sand, Rock, Cliff",Yes,Yes,Yes,Yes,Yes,Yes,No,Ahupua'a 'O Kahana,Ahupua'A 'O Kahana State Park
-157.883868932357814,21.578146591951132,90,90,Punalu'u Beach Park,21.57815,-157.883883,State of Hawaii,City & County of Honolulu,Vertical and Horizontal,Grass,0,Rock,Yes,Yes,Yes,Yes,Yes,Yes,No,Punalu'u Beach Park,Punalu'U Beach Park
-157.895310602997483,21.594635483166019,91,91,Kaluanui Kam Hwy B,21.594639,-157.895325,City & County of Honolulu,City & County of Honolulu,Vertical and Horizontal,Grass,0,Sand,No,No,No,Yes,Yes,No,No,Kaluanui Beach,"28B; Kaluanui Beach"
-157.895941163014271,21.595832703160408,92,92,Kaluanui Kam Hwy A,21.595836,-157.895956,City & County of Honolulu,City & County of Honolulu,Vertical and Horizontal,Sand,0,Sand,No,No,No,No,No,No,No,Kaluanui Kam Hwy A,N/A
-157.897002272935339,21.597829922909217,93,93,Kaluanui Road,21.597833,-157.897017,City & County of Honolulu,City & County of Honolulu,Vertical and Horizontal,Grass,0,River,No,No,No,No,No,No,No,Kaluanui Road,N/A
-157.89750227231545,21.600446593353997,94,94,Hau'ula Roadside Access B,21.60045,-157.897517,State of Hawaii,State of Hawaii,Vertical and Horizontal,Sand,0,"Rock, Cliff",No,No,No,No,No,No,No,Hau'ula Roadside Access,N/A
-157.904852272947409,21.606846593921357,95,95,Hau'ula Roadside Access A,21.60685,-157.904867,State of Hawaii,State of Hawaii,Vertical and Horizontal,Sand,0,"Rock, Sand",No,No,No,No,No,No,No,Hau'ula Roadside Access A,N/A
-157.905896713462937,21.607027153215473,96,96,Hau'ula Beach Remnant Beach Right of Way,21.607031,-157.905911,State of Hawaii,City & County of Honolulu,Vertical and Horizontal,Grass,0,Sand,No,No,No,No,No,No,No,Hau'ula Beach Remnant Beach Right of Way,Public Right Of Way To Beach
-157.911068933292682,21.612238263486162,97,97,Hau'ula Beach Park,21.612242,-157.911083,State of Hawaii,City & County of Honolulu and State of Hawaii,Vertical and Horizontal,Grass,40,Sand,Yes,Yes,Yes,Yes,Yes,Yes,No,Hau'ula Beach Park,Hau'Ula Beach Park
-157.918166163942942,21.622921594120218,98,98,Kokololio Beach Park,21.622925,-157.918181,City & County of Honolulu,City & County of Honolulu,Vertical and Horizontal,Grass,225,Sand,Yes,Yes,Yes,Yes,Yes,Yes,No,Kokololio Beach Park,The Following Are Prohibited...
-157.921185603713184,21.631857704552882,99,99,La’ie Beach Park,21.631861,-157.9212,State of Hawaii,City & County of Honolulu,Vertical and Horizontal,Grass,43,Sand,No,Yes,Yes,Yes,Yes,No,No,"La’ie Beach Park; Pounders","La’Ie Beach Park; The Following Are Prohibited..."
-157.919832823842569,21.645218815682828,100,100,Kamehameha Hwy Beach Right of Way,21.645222,-157.919847,City & County of Honolulu,City & County of Honolulu,Vertical and Horizontal,Sand,0,Sand,No,No,No,No,No,No,No,Kamehameha Hwy Beach Right of Way,"20A; Public Right Of Way To Beach"
-157.91451893387682,21.648552155831641,101,101,La’ie Point,21.648556,-157.914533,Various Owners,State of Hawaii,Vertical and Horizontal,Rocky,12,Rock,No,No,No,Yes,No,No,No,La’ie Point,Various
-157.928541164456789,21.652546596406193,102,102,Hukilau Beach,21.65255,-157.928556,Property Reserve Inc,Property Reserve Inc,Vertical and Horizontal,Grass,50,Sand,Yes,Yes,Yes,Yes,Yes,No,No,Hukilau Beach,Hukilau Beach
-157.92899949419234,21.659977156160984,103,103,Malaekahana State Rec Area (Kalanai Section),21.659981,-157.929014,State of Hawaii,State of Hawaii,Vertical and Horizontal,Grass,200,Sand,Yes,Yes,Yes,Yes,Yes,Yes,No,Malaekahana State Rec Area (Kalanai Section),Malaekahana State Rec Area Dlnr
-157.9384550450078,21.669271596717891,104,104,Malaekahana State Recreation Area,21.669275,-157.938469,State of Hawaii,State of Hawaii,Vertical and Horizontal,Grass,40,Sand,Yes,Yes,Yes,Yes,Yes,No,No,Malaekahana State Recreation Area,Malaekahana State Recreation Area
-157.997105047228814,21.704616038746721,105,105,Turtle Bay East,21.704619,-157.997119,Turtle Bay Resort,Turtle Bay Resort,Vertical and Horizontal,Pavement,44,Sand,Yes,Yes,No,Yes,Yes,No,No,Turtle Bay East,Public Beach Caution No Lifeguard On Duty
-157.997821718122367,21.704127158385997,106,106,Turtle Bay West,21.704131,-157.997836,Turtle Bay Resort,Turtle Bay Resort,Vertical and Horizontal,Pavement,44,Rock,No,Yes,No,Yes,Yes,No,No,Turtle Bay West,"Shoreline Public Access; Public Beach Caution No Lifeguard On Duty"
-158.019546718549094,21.693179927609595,107,107,Waiale'e Beach Park,21.693183,-158.019561,State of Hawaii and City & County of Honolulu,City & County of Honolulu,Vertical and Horizontal,Sand,12,Sand,No,No,No,Yes,No,No,No,Waiale'e Beach Park,No Camping Gated During Time Of Survey
-158.037155608719218,21.680176596643932,108,108,Sunset Point Beach Park,21.68018,-158.03717,City & County of Honolulu,City & County of Honolulu,Vertical and Horizontal,Sand,7,Sand,No,No,No,Yes,No,No,No,BackyaRoads,"281B, Public Right Of Way To Beach"
-158.037160608380418,21.680160486444901,109,109,O'opuola Street,21.680164,-158.037175,City & County of Honolulu,City & County of Honolulu,Vertical and Horizontal,Sand,5,Sand,No,No,No,Yes,No,No,No,BackyaRoads,"281B, Public Right Of Way To Beach"
-158.038405609263322,21.678336596837561,110,110,Kahauola Street Beach Right of Way,21.67834,-158.03842,City & County of Honolulu,City & County of Honolulu,Vertical and Horizontal,Sand,2,Sand,No,No,No,Yes,No,No,No,Kahauola Street,"281A, Public Right Of Way To Beach"
-158.038655608440251,21.676916596859247,111,111,Huelo Street Beach Right of Way,21.67692,-158.03867,City & County of Honolulu,City & County of Honolulu,Vertical and Horizontal,Sand,2,Sand,No,No,No,Yes,No,No,No,Huelo Street,"280B, Public Right Of Way To Beach"
-158.040177279377076,21.674154925894161,112,112,Sunset Beach Park,21.674158,-158.040192,State of Hawaii and City & County of Honolulu,City & County of Honolulu,Vertical and Horizontal,Sand,100,Sand,Yes,Yes,Yes,Yes,Yes,Yes,Yes,Suset Beach and Support Park,N/A
-158.042168908543402,21.672429926075747,113,113,Ke Nui A,21.672433,-158.042183,State of Hawaii and City & County of Honolulu,City & County of Honolulu and State of Hawaii,Vertical and Horizontal,Sand,0,Sand,No,No,No,Yes,No,No,No,Ke Nui A,N/A
-158.043852308618852,21.670963265750906,114,114,Ke Nui B,21.670967,-158.043867,State of Hawaii and City & County of Honolulu,City & County of Honolulu and State of Hawaii,Vertical and Horizontal,Sand,0,Sand,No,No,No,Yes,No,No,No,Ke Nui B,N/A
-158.045148608787599,21.669813596381061,115,115,Ke Nui D,21.669817,-158.045163,State of Hawaii and City & County of Honolulu,City & County of Honolulu and State of Hawaii,Vertical and Horizontal,Sand,0,Sand,No,No,No,Yes,No,No,No,Ke Nui D,279C
-158.046425609290424,21.668596595771536,116,116,Ke Nui C,21.6686,-158.04644,State of Hawaii and City & County of Honolulu,City & County of Honolulu and State of Hawaii,Vertical and Horizontal,Sand,0,Sand,No,No,No,Yes,No,No,No,Ke Nui C,"279D, Beach Right Of Way; Private Residence Vehicle Access Only"
-158.047835609456172,21.668196596232299,117,117,Ke Nui E,21.6682,-158.04785,State of Hawaii and City & County of Honolulu,City & County of Honolulu and State of Hawaii,Vertical and Horizontal,Sand,0,Sand,No,No,No,Yes,No,No,No,Ke Nui E,279B
-158.049102308989632,21.666146595865531,118,118,Ke Nui F,21.66615,-158.049117,State of Hawaii and City & County of Honolulu,City & County of Honolulu and State of Hawaii,Vertical and Horizontal,Sand,0,Sand,No,No,No,Yes,No,No,No,Ke Nui F,"279A, Beach Right Of Way"
-158.050667629067874,21.664927685291175,119,119,Ehukai Beach Park,21.664931,-158.050682,City & County of Honolulu,City & County of Honolulu,Vertical and Horizontal,Grass,46,Sand,Yes,Yes,Yes,Yes,Yes,No,Yes,Ehukai Beach Park,The Following Are Prohibited...
-158.051735608957472,21.663813265898877,120,120,Ke Nui G,21.663817,-158.05175,State of Hawaii and City & County of Honolulu,City & County of Honolulu and State of Hawaii,Vertical and Horizontal,Sand,0,Sand,No,No,No,No,No,No,No,Ke Nui G,"278D, Public Right Of Way To Beach"
-158.056738419573691,21.65958875557055,121,121,Ke Waena,21.659592,-158.056753,State of Hawaii,State of Hawaii,Vertical and Horizontal,Sand,0,Sand,No,No,No,Yes,No,No,Yes,Ka Waena,"278A, Public Right Of Way To Beach"
-158.059213389652825,21.655774375003787,122,122,Ke Iki C,21.655778,-158.059228,State of Hawaii and City & County of Honolulu,City & County of Honolulu and State of Hawaii,Vertical and Horizontal,Sand,0,Sand,No,No,No,Yes,No,No,No,Ke Iki C,276C
-158.060113389107215,21.654182704626233,123,123,Ke Iki B,21.654186,-158.060128,State of Hawaii and City & County of Honolulu,City & County of Honolulu and State of Hawaii,Vertical and Horizontal,Paved and Sand,0,Sand,No,No,No,No,No,No,Yes,Ke Iki B,276B
-158.060916169559988,21.652641035214149,124,124,Ke Iki A,21.652644,-158.060931,State of Hawaii and City & County of Honolulu,City & County of Honolulu and State of Hawaii,Vertical and Horizontal,Paved,0,Rock,No,No,No,No,No,No,No,Ke Iki A,"276A, Public Right Of Way To Beach"
-158.062257829428631,21.649871594511012,125,125,Pupukea Beach Park,21.649875,-158.062272,State of Hawaii,City & County of Honolulu,Vertical and Horizontal,Rocky,30,Sand,Yes,Yes,No,No,No,No,No,Pupukea Beach Park,Various
-158.062788389012667,21.648079924709211,126,126,Pupukea Beach Park,21.648083,-158.062803,State of Hawaii,City & County of Honolulu,Vertical and Horizontal,Rocky,0,Rock,Yes,No,No,Yes,Yes,No,No,Pupukea Beach Park,Various
-158.063127279186318,21.64576881387427,127,127,Pupukea Beach Park,21.645772,-158.063142,State of Hawaii,City & County of Honolulu,Vertical and Horizontal,Rocky,100,Rock,No,No,No,Yes,No,No,No,Pupukea Beach Park,Various
-158.06051150934681,21.639603363668403,128,128,Waimea Bay Beach Park,21.639607,-158.060526,City & County of Honolulu,City & County of Honolulu,Vertical and Horizontal,Paved,82,Sand,Yes,Yes,Yes,Yes,Yes,Yes,Yes,Waimea Bay Beach Park,Various
-158.069741169439453,21.633774373519952,129,129,Uppers Surfing Support Park,21.633778,-158.069756,City & County of Honolulu,City & County of Honolulu,Vertical and Horizontal,Rocky,0,Rock,No,No,No,No,No,No,No,Uppers Surfing Support Park,N/A
-158.073582829842564,21.627852153034294,130,130,Leftovers Surfing Support Park,21.627856,-158.073597,City & County of Honolulu,City & County of Honolulu,Vertical and Horizontal,Rocky,0,Rock,No,No,No,Yes,No,No,No,Leftovers Surfing Support Park,The Following Are Prohibited...
-158.080163389636624,21.622741032661619,131,131,Kawailoa Beach Park,21.622744,-158.080178,City & County of Honolulu,City & County of Honolulu,Vertical and Horizontal,Sand,0,Sand,Yes,No,No,Yes,No,No,Yes,Kawailoa Beach Park,The Following Are Prohibited...
-158.082227279601369,21.621338262601945,132,132,Chuns Reef Support Beach Park,21.621342,-158.082242,BP Bishop Trust Estate,City & County of Honolulu,Vertical and Horizontal,Rocky,0,Sand,No,No,No,Yes,No,No,Yes,Chuns Reef Support Beach Park,The Following Are Prohibited...
-158.085880050103327,21.617882702206369,133,133,Laniakea Beach Support Park,21.617886,-158.085894,Multiple owners,City & County of Honolulu,Vertical and Horizontal,Sand,0,Sand,No,No,No,Yes,No,No,No,Laniakea Support Beach Park,The Following Are Prohibited...
-158.094102610544837,21.612446591492557,134,134,Papailoa Road,21.61245,-158.094117,Multiple owners,City & County of Honolulu,Vertical and Horizontal,Sand,0,Sand,No,No,No,Yes,No,No,No,Papailoa Road,"269A, Public Right Of Way To Beach"
-158.103383610525697,21.598615591414433,135,135,Hale'iwa Beach Park,21.598619,-158.103398,City & County of Honolulu,City & County of Honolulu,Vertical and Horizontal,Sand,100,Sand,Yes,Yes,Yes,Yes,Yes,Yes,Yes,Hale'iwa  Beach Park (East),Various
-158.10565161033341,21.593456591071714,136,136,Hale'iwa Harbor,21.59346,-158.105666,State of Hawaii,State of Hawaii,Vertical and Horizontal,Paved,100,Rock,Yes,No,No,Yes,Yes,Yes,No,Hale'iwa Harbor,Various
-158.11024161041442,21.590599590602054,137,137,Hale'iwa Ali'i Beach Park (West),21.590603,-158.110256,City & County of Honolulu,City & County of Honolulu,Vertical and Horizontal,Grass,84,Sand,Yes,Yes,Yes,Yes,Yes,No,Yes,Ali'i Beach,Hale'Iwa Ali'I Beach Park
-158.112385611036586,21.588696589887892,138,138,Pikai C,21.5887,-158.1124,State of Hawaii,State of Hawaii,Vertical and Horizontal,Sand,0,Sand,No,No,No,No,No,No,No,Pikai C,No Parking
-158.114010610943978,21.588504590137951,139,139,Pikai B,21.588508,-158.114025,State of Hawaii,State of Hawaii,Vertical and Horizontal,Sand,0,Sand,No,No,No,No,No,No,No,Pikai B,No Parking
-158.115562611096237,21.588720590588242,140,140,Pikai A,21.588724,-158.115577,State of Hawaii,State of Hawaii,Vertical and Horizontal,Sand,0,Sand,No,No,No,No,No,No,No,Pikai A,No Parking
-158.124530610780681,21.582579589390857,141,141,Kaiaka Bay Beach Park,21.582583,-158.124545,City & County of Honolulu,City & County of Honolulu,Vertical and Horizontal,Grass,100,Sand,Yes,Yes,Yes,Yes,Yes,No,No,Kaiaka Bay Beach Park,Kaiaka Bay Beach Park
-158.137493611565247,21.583461589827117,142,142,‘Aweoweo Beach Park,21.583465,-158.137508,City & County of Honolulu,City & County of Honolulu,Vertical and Horizontal,Sand,1,Sand,Yes,Yes,Yes,Yes,Yes,Unknown,No,‘Aweoweo Beach Park,‘Aweoweo Beach Park
-158.14012461152177,21.58321358944065,143,143,Au Street (West) B,21.583217,-158.140139,"Kumura, Stanley S/Kumura, Aimee I",City access easement,Vertical and Horizontal,Grass,0,Sand,No,No,No,No,No,No,No,Au Street (West) B,258A
-158.142815611438891,21.582498589507352,144,144,Au Street (East) A,21.582502,-158.14283,Various Owners,City access easement,Vertical and Horizontal,Grass,0,Sand,No,No,No,No,No,No,No,Au Street (East) A,"239A, Public Right Of Way To Beach"
-158.155181612536893,21.579748589129707,145,145,Crozier Drive,21.579752,-158.155196,Various Owners,City access easement,Vertical and Horizontal,Sand,0,Sand,No,No,No,Yes,No,No,No,Crozier Drive,"257A, The Following Are Prohibited..."
-158.165421612640642,21.576826589328689,146,146,Makaleha Beach Park,21.57683,-158.165436,City & County of Honolulu,City & County of Honolulu,Vertical and Horizontal,Sand,0,Sand,No,No,No,Yes,No,No,No,Makaleha Beach Right of Way,Public Right Of Way To Beach
-158.177645612741713,21.579973588806183,147,147,Ho'omana Place Beach Right of Way,21.579977,-158.17766,City & County of Honolulu,City & County of Honolulu,Vertical and Horizontal,Grass,0,Sand,No,No,No,No,No,No,No,Hoomana Beach,Hoomana Beach Beach Right Of Way
-158.193410613651309,21.581359589348644,148,148,Mokule‘ia Beach Park,21.581363,-158.193425,City & County of Honolulu,City & County of Honolulu,Vertical and Horizontal,Grass,63,Sand,Yes,Yes,Yes,Yes,Yes,No,No,Mokule‘ia,The Following Are Prohibited...
-158.20874961391462,21.581165588744266,149,149,Dillingham Airfield,21.581169,-158.208764,United States of America,United States of America,Vertical and Horizontal,Sand,0,Sand,No,No,No,No,No,No,No,Army Beach,Various
-158.237200615442106,21.579662588398783,150,150,Ka'ena  Point State Park Reserve,21.579666,-158.237215,State of Hawaii DLNR State Parks Division,State of Hawaii DLNR State Parks Division,Vertical and Horizontal,Rocky,0,Rock,No,No,No,Yes,No,No,No,Ka'ena  Point State Park Reserve,Ka'ena Point State Park Reserve - Mokule‘ia  Section
-158.241523124793474,21.548849896828862,151,151,Ka'ena Point State Park Keawa'ula Beach,21.548853,-158.241538,State of Hawaii,State of Hawaii,Vertical and Horizontal,Sand,21,Sand,Yes,Yes,No,Yes,Yes,No,Yes,Keawa'ula,Ka'ena Point State Park
-158.230872694994531,21.536994336187412,152,152,Ka'ena Point State Park,21.536998,-158.230887,State of Hawaii,State of Hawaii,Vertical and Horizontal,Sand,100,Sand,No,No,No,Yes,No,No,No,N/A,Ka'ena Pt - Makua Section
-158.229513063774817,21.488336082339462,153,153,Kea'au Beach Park,21.488339,-158.229527,State of Hawaii,City & County of Honolulu,Vertical and Horizontal,Grass,37,Sand,Yes,Yes,Yes,Yes,Yes,Yes,No,N/A,Kea'au Beach Park
-158.230100183645874,21.482537051975669,154,154,Makau Street B,21.48254,-158.230115,"Various, Capitol Investment Co Inc",City access easement,Vertical and Horizontal,Grass,0,Sand,No,No,No,No,No,No,No,Makua B Beach Right of Way,228A
-158.226876214055892,21.479228081777229,155,155,Makau Street A,21.479232,-158.226891,Various,City access easement,Vertical and Horizontal,Dirt,0,Rock,No,No,No,No,No,No,No,Makua A Beach Right of Way,227A
-158.221952703775287,21.47868538253557,156,156,Makaha Beach Park,21.478689,-158.221967,City & County of Honolulu,City & County of Honolulu,Vertical and Horizontal,Sand,40,Sand,Yes,Yes,Yes,Yes,Yes,Yes,Yes,Mahaha  Beach Park,Mahaha  Beach Park
-158.218759633735488,21.473441961989817,157,157,Upena Street,21.473445,-158.218774,Various Owners,Various Owners,Vertical and Horizontal,Sand,0,Sand,No,No,No,No,No,No,No,Upena Street,"226A, Public Right Of Way To Beach"
-158.218141623455182,21.47136131184595,158,158,Upena Street,21.471365,-158.218156,Various Owners,Various Owners,Vertical and Horizontal,Dirt,0,Rock,No,No,No,No,No,No,No,Upena Street,Public Right Of Way To Beach
-158.215236963230637,21.465706491559001,159,159,Moua Street,21.46571,-158.215251,City & County of Honolulu,City & County of Honolulu,Vertical and Horizontal,Rocky,0,Rock,No,No,No,No,No,No,No,Moua Street,"225A, Public Right Of Way To Beach"
-158.210925312936581,21.461153641215816,160,160,Mauna Lahilahi Cultural Garden,21.461157,-158.21094,City & County of Honolulu,City & County of Honolulu,Vertical and Horizontal,Dirt and Sand,8,"Rock, Cliff",No,No,No,No,No,No,No,Mauna lahilahi Cultural GaRoaden,Notice Park Closed 10pm To 5am
-158.208129802910122,21.460731481025082,161,161,Mauna Lahilahi Beach Park,21.460735,-158.208144,State of Hawaii and City & County of Honolulu,City & County of Honolulu,Vertical and Horizontal,Grass,0,Sand,Yes,Yes,Yes,Yes,Yes,No,No,Mauna Lahilahi Beach Park,Mauna Lahilahi Beach Park
-158.196720766773126,21.449504240291095,162,162,Wai'anae District Park,21.449508,-158.196735,State of Hawaii and City & County of Honolulu,City & County of Honolulu,Vertical and Horizontal,Paved,100,Rock,Yes,No,Yes,Yes,Yes,Yes,No,Wai'anae Regional Park,Wai'anae Regional Park
-158.189980811893236,21.441614270135485,163,163,Poka‘i Bay Beach Park,21.441618,-158.189995,State of Hawaii,City & County of Honolulu,Vertical and Horizontal,Paved,100,Sand,Yes,Yes,Yes,Yes,Yes,Yes,Yes,Poka‘i Bay Beach Park,Poka‘i Bay Beach Park
-158.183687381685218,21.432045359324299,164,164,Lualualei Beach Park,21.432049,-158.183702,State of Hawaii,City & County of Honolulu,Vertical and Horizontal,Grass,100,Sand,Yes,Yes,Yes,Yes,No,Yes,No,Lualualei Beach Park,E Komo Mai Lualualei Beach Park
-158.177385610536476,21.408396577978444,165,165,Ulehawa Beach Park,21.4084,-158.1774,State of Hawaii and City & County of Honolulu,City & County of Honolulu,Vertical and Horizontal,Grass,300,Sand,Yes,Yes,Yes,Yes,Yes,Yes,Yes,Ma'ili Beach Park,Ma'Ili Beach Park
-158.178018940782607,21.421546579043426,166,166,Ma'ili Beach Park,21.42155,-158.178033,State of Hawaii & City & County of Honolulu,City & County of Honolulu,Vertical and Horizontal,Grass,207,Sand,Yes,Yes,Yes,Yes,Yes,No,No,N/A,N/A
-158.146606569339781,21.382037786745411,167,167,Nanakuli Beach Park,21.382041,-158.146621,State of Hawaii and City & County of Honolulu,City & County of Honolulu,Vertical and Horizontal,Grass,20,Sand,Yes,Yes,Yes,Yes,Yes,No,No,Nanakuli Beach Park,Nanakuli Beach Park
-158.131908158676055,21.360819325621833,168,168,Tracks Beach Park,21.360823,-158.131923,HECO,City & County of Honolulu,Vertical and Horizontal,Grass,20,Sand,Yes,Yes,No,Yes,Yes,No,No,Tracks Beach Park,Tracks
-158.130345728698643,21.353157415832687,169,169,Kahe Point Beach Park,21.353161,-158.13036,City & County of Honolulu,City & County of Honolulu,Vertical and Horizontal,Grass,58,Rock,Yes,Yes,Yes,Yes,Yes,Yes,No,Kahe Point Beach Park,The Following Are Prohibited...
-158.126915598238895,21.342094474602703,170,170,Paradise Cove,21.342098,-158.12693,James Campbell Lanikuhonua Cult Ins…,Multiple operator-managers,Vertical and Horizontal,Sand,15,Sand,No,No,No,Yes,No,No,No,Paradise Cove,Various
-158.125092378014159,21.339189684310249,171,171,Ko Olina Lagoon 1A,21.339193,-158.125107,Ihilani Hotel LLC,Ihilani Hotel LLC,Vertical and Horizontal,Paved,21,Sand,Yes,Yes,No,Yes,Yes,Yes,No,Kohola (Whale),Public Access
-158.123681187624754,21.337139844637871,172,172,Ko Olina Lagoon 1B,21.337143,-158.123696,Ko Olina Chapel LLC,Ko Olina Chapel LLC,Vertical and Horizontal,Paved,18,Sand,Yes,Yes,No,Yes,Yes,Yes,No,Kohola (Whale),Public Access
-158.122965608262803,21.335426574613386,173,173,Ko Olina Lagoon 2,21.33543,-158.12298,TAT Ko Olina 25 LLC,TAT Ko Olina 25 LLC,Vertical and Horizontal,Sand,19,Sand,Yes,Yes,No,Yes,Yes,Yes,No,Honu (Turtle),Public Access
-158.121693157677498,21.332751754711023,174,174,Ko Olina Lagoon 3,21.332755,-158.121708,Marriot Ownership Resorts,Marriot Ownership Resorts,Vertical and Horizontal,Paved,20,Sand,Yes,Yes,No,Yes,Yes,Yes,No,Nai'a (Dolphin),Public Access
-158.121528347284681,21.327570513577417,175,175,Ko Olina Lagoon 4,21.327574,-158.121543,City & County of Honolulu (via agreement),Ko Olina Development LLC,Vertical and Horizontal,Paved,102,Sand,Yes,Yes,No,Yes,Yes,Yes,No,Ulua (Trevally),Public Access
-158.122465707727599,21.325788493792857,176,176,Ko Olina Beach Park,21.325792,-158.12248,Ko Olina Development LLC,Ko Olina Development LLC,Vertical and Horizontal,Paved,102,Sand,Yes,Yes,No,Yes,Yes,Yes,No,Ko Olina Beach Park,Public Access
-158.120312857316208,21.320617543542241,177,177,Kalaeloa,21.320621,-158.120327,James Campbell Company LLC,James Campbell Company LLC,Vertical and Horizontal,Paved,100,Rock,Yes,No,No,Yes,Yes,No,No,Barber's Point Harbor,Private Launch Ramp
-158.117839507541333,21.315590812848562,178,178,Camp Malakole,21.315594,-158.117854,Kenai Industrial Park Association,City & County of Honolulu,Vertical and Horizontal,Paved,0,"Sand, Rock",No,No,No,No,No,No,No,Camp Malakole,200A
-158.104418896878798,21.296792062124759,179,179,Barbers Point Beach Park,21.296795,-158.104433,City & County of Honolulu,City & County of Honolulu,Vertical and Horizontal,Grass,52,Sand,Yes,Yes,Yes,Yes,Yes,No,No,Barbers Point Beach Park,Barbers Point Beach Park
-158.063473675569639,21.300294293311612,180,180,Nimitz Beach,21.300298,-158.063488,United States of America,United States of America,Vertical and Horizontal,Sand,0,Sand,No,No,No,Yes,No,No,No,Nimitz Beach,The Following Are Prohibited...
-158.045395964835166,21.304126143597742,181,181,White Plains Beach,21.30413,-158.04541,United States of America,United States of America,Vertical and Horizontal,Paved,300,Sand,Yes,Yes,Yes,Yes,Yes,No,Yes,White Plains,Us Navy Property
-158.029738923439169,21.305691853471785,182,182,One'ula Beach Park,21.305695,-158.029753,City & County of Honolulu,City & County of Honolulu,Vertical and Horizontal,Sand,300,Sand,Yes,Yes,Yes,Yes,Yes,No,No,Hau Bush,One'Ula Beach Park
-158.021982503361016,21.306227483397048,183,183,Pupu Place,21.306231,-158.021997,City & County of Honolulu,City & County of Honolulu,Vertical,Paved,0,Rock,No,No,No,No,No,No,No,Pupu Pl,N/A
-158.011012272933243,21.310079944303205,184,184,Oneula Place,21.310083,-158.011027,City & County of Honolulu,City & County of Honolulu,Vertical and Horizontal,Sand,0,Sand,No,No,No,No,No,No,No,Oneula,"187A, Public Public Beach Right Of Way"
-158.007118613140506,21.310718584584045,185,185,Parish Drive,21.310722,-158.007133,City & County of Honolulu,City & County of Honolulu,Vertical and Horizontal,Sand,0,Sand,No,No,No,No,No,No,No,Parish Drive Beach Right of Way,"186J, Ewa Limu Management Area"
-158.004636142984879,21.311377833974319,186,186,Ewa Beach Rd. A,21.311381,-158.004651,City & County of Honolulu,City & County of Honolulu,Vertical and Horizontal,Sand,0,Sand,No,No,No,No,No,No,No,Ewa Beach Road A,"186I, Public Beach Right Of Way"
-158.002905632729579,21.311831064302396,187,187,Ewa Beach Rd. B,21.311834,-158.00292,City & County of Honolulu,City & County of Honolulu,Vertical,Sand,0,Sand,No,No,No,No,No,No,No,Ewa Beach Road B (Mauka),"186G, Public Beach Right Of Way"
-158.002905632729579,21.311831064302396,188,188,Ewa Beach Rd. C,21.311834,-158.00292,City & County of Honolulu,City & County of Honolulu,Vertical and Horizontal,Sand,0,Sand,No,No,No,No,No,No,No,Ewa Beach Road C (Makai),"186H, Public Beach Right Of Way"
-158.001133913246179,21.312160684664516,189,189,Ewa Beach Rd. D,21.312164,-158.001148,City & County of Honolulu,City & County of Honolulu,Vertical,Sand,0,Sand,No,No,No,No,No,No,No,Ewa Beach Road D (Mauka),"186E, Public Beach Right Of Way"
-158.001133913246179,21.312160684664516,190,190,Ewa Beach Rd. E,21.312164,-158.001148,City & County of Honolulu,City & County of Honolulu,Vertical and Horizontal,Sand,0,Sand,No,No,No,No,No,No,No,Ewa Beach Road E (Makai),"186F, Public Beach Right Of Way"
-157.999691822891265,21.312500604227207,191,191,Ewa Beach Rd. F,21.312504,-157.999706,City & County of Honolulu,City & County of Honolulu,Vertical,Sand,0,Sand,No,No,No,No,No,No,No,Ewa Beach Road F (Mauka),"186C, Public Beach Right Of Way"
-157.999691822891265,21.312500604227207,192,192,Ewa Beach Rd. G,21.312504,-157.999706,City & County of Honolulu,City & County of Honolulu,Vertical and Horizontal,Sand,0,Sand,No,No,No,No,No,No,No,Ewa Beach Road G (Makai),186D
-157.99824972256539,21.312881734600943,193,193,Ewa Beach Rd. H,21.312885,-157.998264,City & County of Honolulu,City & County of Honolulu,Vertical,Sand,0,Sand,No,No,No,No,No,No,No,Ewa Beach Road H (Mauka),"186A, Public Beach Right Of Way"
-157.99824972256539,21.312881734600943,194,194,Ewa Beach Rd. I,21.312885,-157.998264,City & County of Honolulu,City & County of Honolulu,Vertical and Horizontal,Sand,0,Sand,No,No,No,No,No,No,No,Ewa Beach Road I (Makai),"186B, Public Beach Right Of Way"
-157.99537583311087,21.313571874843468,195,195,Ewa Beach Rd. J,21.313575,-157.99539,City & County of Honolulu,City & County of Honolulu,Vertical,Sand,0,Sand,No,No,No,No,No,No,No,Ewa Beach Road J (Mauka),185B
-157.99537583311087,21.313571874843468,196,196,Ewa Beach Rd. K,21.313575,-157.99539,City & County of Honolulu,City & County of Honolulu,Vertical and Horizontal,Sand,0,Sand,No,No,No,No,No,No,No,Ewa Beach Road K (Makai),185C
-157.993974932212694,21.31390150432879,197,197,Ewa Beach Rd. L,21.313905,-157.993989,City & County of Honolulu,City & County of Honolulu,Vertical and Horizontal,Paved,0,Sand,No,No,No,No,No,No,No,Ewa Beach Road L (Makai),"185A, Public Beach Right Of Way"
-157.991657282420931,21.315003675000035,198,198,Ewa Beach Park,21.315007,-157.991672,City & County of Honolulu,City & County of Honolulu,Vertical and Horizontal,Grass,71,Sand,Yes,Yes,Yes,Yes,Yes,No,No,Ewa Beach Park,"Ewa Beach Park, Notice Parking Lot Closed 8pm To 5am"
-157.972302292322496,21.323336925070016,199,199,Iriquois Point A,21.32334,-157.972317,United States of America,United States of America,Vertical and Horizontal,Grass,18,Sand,No,No,No,Yes,No,No,No,Iriquois Point A,Public Right Of Way To Beach
-158.021167014369979,21.366323487430599,200,200,West Loch Shoreline Park,21.366327,-158.021181,City & County of Honolulu,City & County of Honolulu,Vertical and Horizontal,Paved,50,Rock,Yes,No,No,Yes,Yes,Yes,No,West Lock Shoreline Park,Various
-157.955445602464465,21.386096579722238,201,201,Neil S Blaisdell Park,21.3861,-157.95546,City & County of Honolulu,City & County of Honolulu,Vertical and Horizontal,Grass,249,Rock,Yes,No,Yes,Yes,Yes,No,No,Pearl Harbor Park,Neil S Blaisdell Park
-157.935707821322325,21.377396579335407,202,202,Aiea Bay State Recreational Area,21.3774,-157.935722,State of Hawaii DLNR State Parks Division,State of Hawaii DLNR State Parks Division,Vertical and Horizontal,Grass,30,Rock,Yes,No,Yes,Yes,Yes,No,No,Aiea Bay State Recreational Area,Aiea Bay State Recreation Area
-157.91981060035485,21.31254379555098,203,203,Lagoon Drive,21.312547,-157.919825,State of Hawaii DOT Airports Division,State of Hawaii DOT Airports Division,Vertical and Horizontal,Grass,100,"Rock, Cliff",No,No,No,No,No,No,No,Lagoon Drive,No Parking (Along Lagoon Dr.)
-157.913124490101922,21.317782686034462,204,204,Island Seaplane,21.317786,-157.913139,State of Hawaii DOT Airports Division,State of Hawaii DOT Airports Division,Vertical and Horizontal,Grass,0,"Rock, Cliff",No,No,No,No,No,No,No,Island Seaplane,No Parking (Along Lagoon Dr.)
-157.903991159948134,21.324521576467088,205,205,Lagoon Drive,21.324525,-157.904006,State of Hawaii DOT Airports Division,State of Hawaii DOT Airports Division,Vertical and Horizontal,Grass,0,"Rock, Cliff",No,No,No,No,No,No,No,Lagoon Drive,No Parking (Along Lagoon Dr.)
-157.898577269523145,21.330507687139093,206,206,Ke'ehi Lagoon Park,21.330511,-157.898592,State of Hawaii,City & County of Honolulu,Vertical and Horizontal,Grass,452,"Sand, Rock",Yes,Yes,Yes,Yes,Yes,Yes,No,Ke'ehi Lagoon Beach Park,Ke'ehi Lagoon Beach Park
-157.890593928469798,21.314543796094153,207,207,Ke'ehi Boat Harbor,21.314547,-157.890608,State of Hawaii,State of Hawaii DLNR,Vertical and Horizontal,Paved,34,"Rock, Cliff",Yes,No,No,Yes,Yes,Yes,No,Ke'ehi Boat Harbor,Ke'ehi Boat Harbor
-157.889455038623112,21.311693795419007,208,208,Sand Island Launch Ramp Facility,21.311697,-157.889469,State of Hawaii,State of Hawaii DLNR,Vertical and Horizontal,Grass,30,"Sand, Rock",Yes,No,Yes,Yes,Yes,Yes,No,Sand Island Launch Ramp Facility,Sand Island Launch Ramp Facility
-157.87862170783518,21.301999355559353,209,209,Sand Island State Recreation Area,21.302003,-157.878636,State of Hawaii DOT Harbors Division,State of Hawaii DLNR,Vertical and Horizontal,Grass,500,"Sand, Rock, Cliff",Yes,Yes,Yes,Yes,Yes,No,No,Sand Island State Recreation Area,Sand Island State Park
